BEIDOU-2 G8-C01
1 44231U 19027A   23124.59210639 -.00000232  00000+0  00000+0 0  9996
2 44231   1.6513  81.0251 0004343 133.2153   5.6651  1.00269089 14644
